OBJECT_NAME,OBJECT_ID,EPOCH,MEAN_MOTION,ECCENTRICITY,INCLINATION,RA_OF_ASC_NODE,ARG_OF_PERICENTER,MEAN_ANOMALY,EPHEMERIS_TYPE,CLASSIFICATION_TYPE,NORAD_CAT_ID,ELEMENT_SET_NO,REV_AT_EPOCH,BSTAR,MEAN_MOTION_DOT,MEAN_MOTION_DDOT
GAOFEN-11 01,2018-063A,2026-06-15T22:49:16.749120,15.55255747,.00032379,97.1298,233.8327,3.6237,356.5041,0,U,43585,999,44015,.16562846E-3,.11113E-3,0
ICESAT-2,2018-070A,2026-06-15T21:51:46.378944,15.28263393,.00059668,92.0082,290.6338,109.3446,250.8449,0,U,43613,999,43226,.28145562E-3,.7751E-4,0
HYSIS,2018-096A,2026-06-15T23:50:27.316608,14.78692377,.00019202,97.9846,233.7508,107.0434,253.0987,0,U,43719,999,40724,.71985616E-4,.476E-5,0
KAZSTSAT,2018-099AB,2026-06-15T19:55:05.577888,14.99862303,.00084421,97.4267,198.8199,73.4091,286.8060,0,U,43783,999,41110,.1155193E-3,.1376E-4,0
SAUDISAT 5A,2018-102A,2026-06-15T23:39:57.809664,15.28037462,.00109484,97.3070,228.5901,132.6670,227.5494,0,U,43831,999,41549,.17995113E-3,.4855E-4,0
SAUDISAT 5B,2018-102C,2026-06-15T22:33:06.357024,15.28294276,.00116079,97.3178,231.6120,135.1048,225.1132,0,U,43833,999,41560,.16658163E-3,.4525E-4,0
GAOFEN-10R,2019-066A,2026-06-16T00:09:49.593600,14.83058573,.00066003,98.0497,120.5774,130.7491,229.4296,0,U,44622,999,36220,.12562927E-3,.968E-5,0
CARTOSAT-3,2019-081A,2026-06-15T23:19:23.793888,15.19274089,.00131143,97.4309,228.8581,152.4582,207.7350,0,U,44804,999,36328,.15717596E-3,.3253E-4,0
GAOFEN-12 01,2019-082A,2026-06-15T23:57:33.997824,14.80457679,.00023075,97.8100,173.4091,71.7494,288.3970,0,U,44819,999,35391,.48213131E-4,.318E-5,0
CSG-1,2019-092A,2026-06-15T23:18:29.781792,14.82152284,.00014576,97.8888,350.5913,89.2903,270.8477,0,U,44873,999,35129,.4928067E-4,.34E-5,0
NEMO-HD,2020-061F,2026-06-15T23:07:37.980192,15.44572434,.00023349,97.1921,228.9287,82.4030,277.7484,0,U,46277,999,32179,.19867426E-3,.9146E-4,0
SENTINEL-6A,2020-086A,2026-06-15T06:57:13.275936,12.80929979,.0007943,66.0393,138.9934,270.2644,89.7461,0,U,46984,999,26008,-.39192E-4,-.7E-6,0
CAS500-1,2021-022A,2026-06-15T22:39:22.063104,15.20196303,.00038295,97.3906,62.2231,308.3399,51.7492,0,U,47932,999,29057,.24254294E-3,.5187E-4,0
GAOFEN-12 02,2021-026A,2026-06-15T22:35:58.222176,14.80295320,.0003605,97.9928,165.1273,226.9857,133.1053,0,U,48079,999,28157,.46528437E-4,.302E-5,0
PLEIADES NEO 3,2021-034A,2026-06-15T23:16:50.752704,14.81671958,.00013754,97.8937,241.7540,88.1600,271.9770,0,U,48268,999,27747,.15018301E-3,.113E-4,0
PLEIADES NEO 4,2021-073E,2026-06-15T07:52:59.121984,14.81674262,.00013742,97.8943,241.1176,86.0176,274.1194,0,U,49070,999,26109,.19081349E-3,.145E-4,0
LANDSAT 9,2021-088A,2026-06-15T23:03:03.592800,14.57096336,.00013719,98.2281,237.1528,85.6647,274.4708,0,U,49260,999,25082,.77624813E-4,.304E-5,0
CSG-2,2022-008A,2026-06-15T22:29:51.986400,14.82156826,.0001451,97.8877,350.5531,85.0590,275.0789,0,U,51444,999,23640,.97259787E-4,.722E-5,0
GAOFEN-12 03,2022-069A,2026-06-15T23:18:43.675776,14.80031826,.00019738,97.8289,54.8729,102.8535,257.2898,0,U,52912,999,21443,.7799066E-4,.54E-5,0
SWOT,2022-173A,2026-06-15T21:59:40.351200,14.00169524,.00002335,77.6107,37.0257,88.6094,271.5085,0,U,54754,999,17897,.26301066E-4,.36E-6,0
GAOFEN-12 04,2023-123A,2026-06-15T23:42:58.509216,14.80226826,.00017944,97.9123,85.0232,83.7878,276.3538,0,U,57654,999,15245,.1185151E-3,.85E-5,0
PARS 1,2024-039Q,2026-06-15T22:55:15.260736,15.45702777,.00114551,97.4819,147.8359,115.3739,244.8697,0,U,59065,999,12845,.20077472E-3,.9625E-4,0
RESURS-P 4,2024-061A,2026-06-15T22:57:59.770656,15.32125308,.00020864,97.2755,114.8771,128.4344,231.7086,0,U,59371,999,12357,.90450504E-4,.2729E-4,0
LEGION 1,2024-081A,2026-06-15T21:46:46.627104,15.16659410,.00096619,97.5022,244.7779,22.2407,337.9244,0,U,59625,999,11734,.17184586E-3,.3298E-4,0
LEGION 2,2024-081B,2026-06-15T22:29:55.241952,15.16638835,.00108949,97.5021,244.9051,348.2504,11.8474,0,U,59626,999,11735,.16272225E-3,.3119E-4,0
ALOS-4 (DAICHI-4),2024-123A,2026-06-15T20:57:49.442688,14.79475009,.00015877,97.9245,264.0657,97.6943,262.4449,0,U,60182,999,10568,.17718118E-3,.1272E-4,0
LEGION 3,2024-146A,2026-06-15T22:40:36.644448,15.16029812,.00074814,45.0022,37.2180,163.1386,196.9743,0,U,60452,999,10183,.16200923E-3,.2905E-4,0
LEGION 4,2024-146B,2026-06-15T21:10:09.711840,15.16021246,.00138723,45.0000,129.4644,301.5441,58.4083,0,U,60453,999,10067,.18586349E-3,.3375E-4,0
SENTINEL-2C,2024-157A,2026-06-15T21:55:52.687200,14.30817472,.00010387,98.5692,241.7138,80.9936,279.1364,0,U,60989,999,9280,.51617195E-4,.92E-6,0
IONOSFERA-M 1,2024-199A,2026-06-15T22:16:12.740736,14.22754103,.00019237,98.7174,40.1135,112.0610,248.0773,0,U,61735,999,12752,.4381905E-4,.54E-6,0
