GAOFEN-11 01            
1 43585U 18063A   26166.95088830  .00011113  00000+0  16563-3 0  9995
2 43585  97.1298 233.8327 0003237   3.6237 356.5041 15.55255747440151
ICESAT-2                
1 43613U 18070A   26166.91095346  .00007751  00000+0  28146-3 0  9994
2 43613  92.0082 290.6338 0005966 109.3446 250.8449 15.28263393432265
HYSIS                   
1 43719U 18096A   26166.99337172  .00000476  00000+0  71986-4 0  9991
2 43719  97.9846 233.7508 0001920 107.0434 253.0987 14.78692377407243
KAZSTSAT                
1 43783U 18099AB  26166.82992567  .00001376  00000+0  11552-3 0  9994
2 43783  97.4267 198.8199 0008442  73.4091 286.8060 14.99862303411101
SAUDISAT 5A             
1 43831U 18102A   26166.98608576  .00004855  00000+0  17995-3 0  9996
2 43831  97.3070 228.5901 0010948 132.6670 227.5494 15.28037462415495
SAUDISAT 5B             
1 43833U 18102C   26166.93965691  .00004525  00000+0  16658-3 0  9996
2 43833  97.3178 231.6120 0011607 135.1048 225.1132 15.28294276415608
GAOFEN-10R              
1 44622U 19066A   26167.00682400  .00000968  00000+0  12563-3 0  9994
2 44622  98.0497 120.5774 0006600 130.7491 229.4296 14.83058573362201
CARTOSAT-3              
1 44804U 19081A   26166.97180317  .00003253  00000+0  15718-3 0  9993
2 44804  97.4309 228.8581 0013114 152.4582 207.7350 15.19274089363287
GAOFEN-12 01            
1 44819U 19082A   26166.99831016  .00000318  00000+0  48213-4 0  9997
2 44819  97.8100 173.4091 0002307  71.7494 288.3970 14.80457679353911
CSG-1                   
1 44873U 19092A   26166.97117803  .00000340  00000+0  49281-4 0  9998
2 44873  97.8888 350.5913 0001457  89.2903 270.8477 14.82152284351292
NEMO-HD                 
1 46277U 20061F   26166.96363403  .00009146  00000+0  19867-3 0  9993
2 46277  97.1921 228.9287 0002334  82.4030 277.7484 15.44572434321794
SENTINEL-6A             
1 46984U 20086A   26166.28973699 -.00000070  00000+0 -39192-4 0  9997
2 46984  66.0393 138.9934 0007943 270.2644  89.7461 12.80929979260082
CAS500-1                
1 47932U 21022A   26166.94400536  .00005187  00000+0  24254-3 0  9994
2 47932  97.3906  62.2231 0003829 308.3399  51.7492 15.20196303290575
GAOFEN-12 02            
1 48079U 21026A   26166.94164609  .00000302  00000+0  46528-4 0  9992
2 48079  97.9928 165.1273 0003605 226.9857 133.1053 14.80295320281575
PLEIADES NEO 3          
1 48268U 21034A   26166.97003186  .00001130  00000+0  15018-3 0  9995
2 48268  97.8937 241.7540 0001375  88.1600 271.9770 14.81671958277475
PLEIADES NEO 4          
1 49070U 21073E   26166.32846206  .00001450  00000+0  19081-3 0  9996
2 49070  97.8943 241.1176 0001374  86.0176 274.1194 14.81674262261094
LANDSAT 9               
1 49260U 21088A   26166.96045825  .00000304  00000+0  77625-4 0  9997
2 49260  98.2281 237.1528 0001371  85.6647 274.4708 14.57096336250822
CSG-2                   
1 51444U 22008A   26166.93740725  .00000722  00000+0  97260-4 0  9996
2 51444  97.8877 350.5531 0001451  85.0590 275.0789 14.82156826236402
GAOFEN-12 03            
1 52912U 22069A   26166.97133884  .00000540  00000+0  77991-4 0  9997
2 52912  97.8289  54.8729 0001973 102.8535 257.2898 14.80031826214431
SWOT                    
1 54754U 22173A   26166.91643925  .00000036  00000+0  26301-4 0  9994
2 54754  77.6107  37.0257 0000233  88.6094 271.5085 14.00169524178974
GAOFEN-12 04            
1 57654U 23123A   26166.98817719  .00000850  00000+0  11852-3 0  9991
2 57654  97.9123  85.0232 0001794  83.7878 276.3538 14.80226826152452
PARS 1                  
1 59065U 24039Q   26166.95503774  .00009625  00000+0  20077-3 0  9994
2 59065  97.4819 147.8359 0011455 115.3739 244.8697 15.45702777128452
RESURS-P 4              
1 59371U 24061A   26166.95694179  .00002729  00000+0  90451-4 0  9991
2 59371  97.2755 114.8771 0002086 128.4344 231.7086 15.32125308123578
LEGION 1                
1 59625U 24081A   26166.90748411  .00003298  00000+0  17185-3 0  9993
2 59625  97.5022 244.7779 0009661  22.2407 337.9244 15.16659410117349
LEGION 2                
1 59626U 24081B   26166.93744493  .00003119  00000+0  16272-3 0  9991
2 59626  97.5021 244.9051 0010894 348.2504  11.8474 15.16638835117355
ALOS-4 (DAICHI-4)       
1 60182U 24123A   26166.87348892  .00001272  00000+0  17718-3 0  9997
2 60182  97.9245 264.0657 0001587  97.6943 262.4449 14.79475009105681
LEGION 3                
1 60452U 24146A   26166.94486857  .00002905  00000+0  16201-3 0  9994
2 60452  45.0022  37.2180 0007481 163.1386 196.9743 15.16029812101838
LEGION 4                
1 60453U 24146B   26166.88205685  .00003375  00000+0  18586-3 0  9996
2 60453  45.0000 129.4644 0013872 301.5441  58.4083 15.16021246100678
SENTINEL-2C             
1 60989U 24157A   26166.91380425  .00000092  00000+0  51617-4 0  9998
2 60989  98.5692 241.7138 0001038  80.9936 279.1364 14.30817472 92804
IONOSFERA-M 1           
1 61735U 24199A   26166.92792524  .00000054  00000+0  43819-4 0  9995
2 61735  98.7174  40.1135 0001923 112.0610 248.0773 14.22754103127527
